{"type": "FeatureCollection", "features": [ {"type": "Feature", "properties": {"norad_id": 66426, "name": "STARLINK-35589", "group": "last-30-days", "lat": -32.398848477281376, "lon": -63.937363540814204, "alt_km": 446.2168690293347, "timestamp": "2025-12-08T08:58:59.555771+00:00", "meta": {"OBJECT_NAME": "STARLINK-35589", "OBJECT_ID": "2025-259E", "EPOCH": "2025-12-07T22:00:03.000096", "MEAN_MOTION": 15.40678024, "ECCENTRICITY": 0.00014311, "INCLINATION": 43.0008, "RA_OF_ASC_NODE": 75.7799, "ARG_OF_PERICENTER": 272.5271, "MEAN_ANOMALY": 298.1614, "EPHEMERIS_TYPE": 0, "CLASSIFICATION_TYPE": "U", "NORAD_CAT_ID": 66426, "ELEMENT_SET_NO": 999, "REV_AT_EPOCH": 550, "BSTAR": 0.00038067242, "MEAN_MOTION_DOT": 0.00015619, "MEAN_MOTION_DDOT": 0}, "tle": {"line1": "1 66426U 25259E   25341.91670139  .00015619  00000+0  38067-3 0  9996", "line2": "2 66426  43.0008  75.7799 0001431 272.5271 298.1614 15.40678024  5508"}}, "geometry": {"type": "Point", "coordinates": [-63.937363540814204, -32.398848477281376]}}, {"type": "Feature", "properties": {"norad_id": 66427, "name": "STARLINK-35611", "group": "last-30-days", "lat": -37.871150734949154, "lon": -50.32336049785105, "alt_km": 446.39351608542165, "timestamp": "2025-12-08T08:58:59.555782+00:00", "meta": {"OBJECT_NAME": "STARLINK-35611", "OBJECT_ID": "2025-259F", "EPOCH": "2025-12-07T22:00:03.000096", "MEAN_MOTION": 15.40686542, "ECCENTRICITY": 0.00019202, "INCLINATION": 43.0009, "RA_OF_ASC_NODE": 75.7488, "ARG_OF_PERICENTER": 293.2933, "MEAN_ANOMALY": 289.8166, "EPHEMERIS_TYPE": 0, "CLASSIFICATION_TYPE": "U", "NORAD_CAT_ID": 66427, "ELEMENT_SET_NO": 999, "REV_AT_EPOCH": 550, "BSTAR": 0.00031861213, "MEAN_MOTION_DOT": 0.00013022, "MEAN_MOTION_DDOT": 0}, "tle": {"line1": "1 66427U 25259F   25341.91670139  .00013022  00000+0  31861-3 0  9998", "line2": "2 66427  43.0009  75.7488 0001920 293.2933 289.8166 15.40686542  5506"}}, "geometry": {"type": "Point", "coordinates": [-50.32336049785105, -37.871150734949154]}}, {"type": "Feature", "properties": {"norad_id": 66428, "name": "STARLINK-35610", "group": "last-30-days", "lat": -41.54033942955629, "lon": -34.97706793496088, "alt_km": 445.9595792698419, "timestamp": "2025-12-08T08:58:59.555795+00:00", "meta": {"OBJECT_NAME": "STARLINK-35610", "OBJECT_ID": "2025-259G", "EPOCH": "2025-12-07T22:00:03.000096", "MEAN_MOTION": 15.40723937, "ECCENTRICITY": 0.00019664, "INCLINATION": 43.001, "RA_OF_ASC_NODE": 75.7193, "ARG_OF_PERICENTER": 269.3908, "MEAN_ANOMALY": 326.0288, "EPHEMERIS_TYPE": 0, "CLASSIFICATION_TYPE": "U", "NORAD_CAT_ID": 66428, "ELEMENT_SET_NO": 999, "REV_AT_EPOCH": 550, "BSTAR": 0.00035605986, "MEAN_MOTION_DOT": 0.0001461, "MEAN_MOTION_DDOT": 0}, "tle": {"line1": "1 66428U 25259G   25341.91670139  .00014610  00000+0  35606-3 0  9994", "line2": "2 66428  43.0010  75.7193 0001966 269.3908 326.0288 15.40723937  5507"}}, "geometry": {"type": "Point", "coordinates": [-34.97706793496088, -41.54033942955629]}}, {"type": "Feature", "properties": {"norad_id": 66429, "name": "STARLINK-35533", "group": "last-30-days", "lat": -42.97371767870826, "lon": -18.21960689230436, "alt_km": 446.4598426327575, "timestamp": "2025-12-08T08:58:59.555805+00:00", "meta": {"OBJECT_NAME": "STARLINK-35533", "OBJECT_ID": "2025-259H", "EPOCH": "2025-12-07T22:00:03.000096", "MEAN_MOTION": 15.40679474, "ECCENTRICITY": 0.00014711, "INCLINATION": 43.001, "RA_OF_ASC_NODE": 75.6871, "ARG_OF_PERICENTER": 277.6109, "MEAN_ANOMALY": 330.388, "EPHEMERIS_TYPE": 0, "CLASSIFICATION_TYPE": "U", "NORAD_CAT_ID": 66429, "ELEMENT_SET_NO": 999, "REV_AT_EPOCH": 550, "BSTAR": 0.00032200517, "MEAN_MOTION_DOT": 0.00013161, "MEAN_MOTION_DDOT": 0}, "tle": {"line1": "1 66429U 25259H   25341.91670139  .00013161  00000+0  32201-3 0  9993", "line2": "2 66429  43.0010  75.6871 0001471 277.6109 330.3880 15.40679474  5508"}}, "geometry": {"type": "Point", "coordinates": [-18.21960689230436, -42.97371767870826]}}, {"type": "Feature", "properties": {"norad_id": 66430, "name": "STARLINK-35470", "group": "last-30-days", "lat": -41.91970229454351, "lon": -1.4532414281528934, "alt_km": 446.0623524282664, "timestamp": "2025-12-08T08:58:59.555816+00:00", "meta": {"OBJECT_NAME": "STARLINK-35470", "OBJECT_ID": "2025-259J", "EPOCH": "2025-12-07T22:00:03.000096", "MEAN_MOTION": 15.40685026, "ECCENTRICITY": 0.00019374, "INCLINATION": 43.0007, "RA_OF_ASC_NODE": 75.6578, "ARG_OF_PERICENTER": 280.8976, "MEAN_ANOMALY": 339.5265, "EPHEMERIS_TYPE": 0, "CLASSIFICATION_TYPE": "U", "NORAD_CAT_ID": 66430, "ELEMENT_SET_NO": 999, "REV_AT_EPOCH": 550, "BSTAR": 0.00033698104, "MEAN_MOTION_DOT": 0.00013791, "MEAN_MOTION_DDOT": 0}, "tle": {"line1": "1 66430U 25259J   25341.91670139  .00013791  00000+0  33698-3 0  9995", "line2": "2 66430  43.0007  75.6578 0001937 280.8976 339.5265 15.40685026  5503"}}, "geometry": {"type": "Point", "coordinates": [-1.4532414281528934, -41.91970229454351]}}, {"type": "Feature", "properties": {"norad_id": 66431, "name": "STARLINK-35439", "group": "last-30-days", "lat": -38.554314553647465, "lon": 14.201568656404863, "alt_km": 446.4707245290356, "timestamp": "2025-12-08T08:58:59.555826+00:00", "meta": {"OBJECT_NAME": "STARLINK-35439", "OBJECT_ID": "2025-259K", "EPOCH": "2025-12-07T22:00:03.000096", "MEAN_MOTION": 15.4068472, "ECCENTRICITY": 0.00012017, "INCLINATION": 43.0008, "RA_OF_ASC_NODE": 75.6258, "ARG_OF_PERICENTER": 269.0304, "MEAN_ANOMALY": 3.8245, "EPHEMERIS_TYPE": 0, "CLASSIFICATION_TYPE": "U", "NORAD_CAT_ID": 66431, "ELEMENT_SET_NO": 999, "REV_AT_EPOCH": 550, "BSTAR": 0.00036923067, "MEAN_MOTION_DOT": 0.00015143, "MEAN_MOTION_DDOT": 0}, "tle": {"line1": "1 66431U 25259K   25341.91670139  .00015143  00000+0  36923-3 0  9993", "line2": "2 66431  43.0008  75.6258 0001201 269.0304   3.8245 15.40684720  5507"}}, "geometry": {"type": "Point", "coordinates": [14.201568656404863, -38.554314553647465]}}, {"type": "Feature", "properties": {"norad_id": 66432, "name": "STARLINK-35446", "group": "last-30-days", "lat": -33.302746862006906, "lon": 28.13096720701749, "alt_km": 446.2298203961991, "timestamp": "2025-12-08T08:58:59.555837+00:00", "meta": {"OBJECT_NAME": "STARLINK-35446", "OBJECT_ID": "2025-259L", "EPOCH": "2025-12-07T22:00:03.000096", "MEAN_MOTION": 15.40656002, "ECCENTRICITY": 0.00011679, "INCLINATION": 43.0006, "RA_OF_ASC_NODE": 75.5958, "ARG_OF_PERICENTER": 285.9417, "MEAN_ANOMALY": 359.4093, "EPHEMERIS_TYPE": 0, "CLASSIFICATION_TYPE": "U", "NORAD_CAT_ID": 66432, "ELEMENT_SET_NO": 999, "REV_AT_EPOCH": 550, "BSTAR": 0.00084750512, "MEAN_MOTION_DOT": 0.0003521, "MEAN_MOTION_DDOT": 0}, "tle": {"line1": "1 66432U 25259L   25341.91670139  .00035210  00000+0  84751-3 0  9993", "line2": "2 66432  43.0006  75.5958 0001167 285.9417 359.4093 15.40656002  5508"}}, "geometry": {"type": "Point", "coordinates": [28.13096720701749, -33.302746862006906]}}, {"type": "Feature", "properties": {"norad_id": 66433, "name": "STARLINK-35457", "group": "last-30-days", "lat": -26.6966863341717, "lon": 40.269784858643355, "alt_km": 447.5832318521825, "timestamp": "2025-12-08T08:58:59.555848+00:00", "meta": {"OBJECT_NAME": "STARLINK-35457", "OBJECT_ID": "2025-259M", "EPOCH": "2025-12-07T22:00:03.000096", "MEAN_MOTION": 15.42500194, "ECCENTRICITY": 0.00010752, "INCLINATION": 43.0007, "RA_OF_ASC_NODE": 75.5687, "ARG_OF_PERICENTER": 251.001, "MEAN_ANOMALY": 45.671, "EPHEMERIS_TYPE": 0, "CLASSIFICATION_TYPE": "U", "NORAD_CAT_ID": 66433, "ELEMENT_SET_NO": 999, "REV_AT_EPOCH": 550, "BSTAR": -0.058623289, "MEAN_MOTION_DOT": -0.02320878, "MEAN_MOTION_DDOT": 0}, "tle": {"line1": "1 66433U 25259M   25341.91670139 -.02320878  00000+0 -58623-1 0  9992", "line2": "2 66433  43.0007  75.5687 0001075 251.0010  45.6710 15.42500194  5502"}}, "geometry": {"type": "Point", "coordinates": [40.269784858643355, -26.6966863341717]}}, {"type": "Feature", "properties": {"norad_id": 66434, "name": "STARLINK-35389", "group": "last-30-days", "lat": -19.27023955593671, "lon": 50.86625949177858, "alt_km": 441.92582826274065, "timestamp": "2025-12-08T08:58:59.555858+00:00", "meta": {"OBJECT_NAME": "STARLINK-35389", "OBJECT_ID": "2025-259N", "EPOCH": "2025-12-07T22:00:03.000096", "MEAN_MOTION": 15.43565522, "ECCENTRICITY": 8.884e-05, "INCLINATION": 43.0006, "RA_OF_ASC_NODE": 75.5467, "ARG_OF_PERICENTER": 282.6016, "MEAN_ANOMALY": 24.0959, "EPHEMERIS_TYPE": 0, "CLASSIFICATION_TYPE": "U", "NORAD_CAT_ID": 66434, "ELEMENT_SET_NO": 999, "REV_AT_EPOCH": 550, "BSTAR": -0.041485903, "MEAN_MOTION_DOT": -0.01700151, "MEAN_MOTION_DDOT": 0}, "tle": {"line1": "1 66434U 25259N   25341.91670139 -.01700151  00000+0 -41486-1 0  9997", "line2": "2 66434  43.0006  75.5467 0000888 282.6016  24.0959 15.43565522  5508"}}, "geometry": {"type": "Point", "coordinates": [50.86625949177858, -19.27023955593671]}}, {"type": "Feature", "properties": {"norad_id": 66435, "name": "STARLINK-35502", "group": "last-30-days", "lat": -12.365842054799257, "lon": 59.26743908666714, "alt_km": 438.168416283821, "timestamp": "2025-12-08T08:58:59.555871+00:00", "meta": {"OBJECT_NAME": "STARLINK-35502", "OBJECT_ID": "2025-259P", "EPOCH": "2025-12-07T22:00:03.000096", "MEAN_MOTION": 15.45014362, "ECCENTRICITY": 0.00011645, "INCLINATION": 43.001, "RA_OF_ASC_NODE": 75.5252, "ARG_OF_PERICENTER": 270.9687, "MEAN_ANOMALY": 44.2813, "EPHEMERIS_TYPE": 0, "CLASSIFICATION_TYPE": "U", "NORAD_CAT_ID": 66435, "ELEMENT_SET_NO": 999, "REV_AT_EPOCH": 550, "BSTAR": -0.048115487, "MEAN_MOTION_DOT": -0.02064537, "MEAN_MOTION_DDOT": 0}, "tle": {"line1": "1 66435U 25259P   25341.91670139 -.02064537  00000+0 -48115-1 0  9996", "line2": "2 66435  43.0010  75.5252 0001164 270.9687  44.2813 15.45014362  5504"}}, "geometry": {"type": "Point", "coordinates": [59.26743908666714, -12.365842054799257]}}]}